CCSDS_OMM_VERS = 2.0
CREATION_DATE  = 
ORIGINATOR     = 

OBJECT_NAME    = STARLINK-37134
OBJECT_ID      = 2026-055V
CENTER_NAME    = EARTH
REF_FRAME      = TEME
TIME_SYSTEM    = UTC
MEAN_ELEMENT_THEORY = SGP/SGP4

EPOCH          = 2026-03-30T06:00:02.000160
MEAN_MOTION    = 15.93765438
ECCENTRICITY   = .00005535
INCLINATION    = 53.1569
RA_OF_ASC_NODE = 234.2809
ARG_OF_PERICENTER = 78.3556
MEAN_ANOMALY   = 257.4203

EPHEMERIS_TYPE = 0
CLASSIFICATION_TYPE = U
NORAD_CAT_ID   = 68281
ELEMENT_SET_NO = 999
REV_AT_EPOCH   = 294
BSTAR          = -.39616285E-2
MEAN_MOTION_DOT = -.1471575E-1
MEAN_MOTION_DDOT = .62870852E-3

CCSDS_OMM_VERS = 2.0
CREATION_DATE  = 
ORIGINATOR     = 

OBJECT_NAME    = STARLINK-37160
OBJECT_ID      = 2026-055W
CENTER_NAME    = EARTH
REF_FRAME      = TEME
TIME_SYSTEM    = UTC
MEAN_ELEMENT_THEORY = SGP/SGP4

EPOCH          = 2026-03-30T06:00:02.000160
MEAN_MOTION    = 15.93681150
ECCENTRICITY   = .00007542
INCLINATION    = 53.1570
RA_OF_ASC_NODE = 234.2897
ARG_OF_PERICENTER = 70.8272
MEAN_ANOMALY   = 261.0806

EPHEMERIS_TYPE = 0
CLASSIFICATION_TYPE = U
NORAD_CAT_ID   = 68282
ELEMENT_SET_NO = 999
REV_AT_EPOCH   = 294
BSTAR          = -.39544624E-2
MEAN_MOTION_DOT = -.1462509E-1
MEAN_MOTION_DDOT = .62112359E-3

CCSDS_OMM_VERS = 2.0
CREATION_DATE  = 
ORIGINATOR     = 

OBJECT_NAME    = STARLINK-37124
OBJECT_ID      = 2026-055X
CENTER_NAME    = EARTH
REF_FRAME      = TEME
TIME_SYSTEM    = UTC
MEAN_ELEMENT_THEORY = SGP/SGP4

EPOCH          = 2026-03-30T06:00:02.000160
MEAN_MOTION    = 15.93854338
ECCENTRICITY   = .00006318
INCLINATION    = 53.1569
RA_OF_ASC_NODE = 234.2744
ARG_OF_PERICENTER = 65.1393
MEAN_ANOMALY   = 274.0835

EPHEMERIS_TYPE = 0
CLASSIFICATION_TYPE = U
NORAD_CAT_ID   = 68283
ELEMENT_SET_NO = 999
REV_AT_EPOCH   = 294
BSTAR          = -.39581192E-2
MEAN_MOTION_DOT = -.1477149E-1
MEAN_MOTION_DDOT = .63362995E-3

CCSDS_OMM_VERS = 2.0
CREATION_DATE  = 
ORIGINATOR     = 

OBJECT_NAME    = STARLINK-37159
OBJECT_ID      = 2026-055Y
CENTER_NAME    = EARTH
REF_FRAME      = TEME
TIME_SYSTEM    = UTC
MEAN_ELEMENT_THEORY = SGP/SGP4

EPOCH          = 2026-03-30T06:00:02.000160
MEAN_MOTION    = 15.93934927
ECCENTRICITY   = .00006484
INCLINATION    = 53.1571
RA_OF_ASC_NODE = 234.2656
ARG_OF_PERICENTER = 75.2783
MEAN_ANOMALY   = 268.0477

EPHEMERIS_TYPE = 0
CLASSIFICATION_TYPE = U
NORAD_CAT_ID   = 68284
ELEMENT_SET_NO = 999
REV_AT_EPOCH   = 294
BSTAR          = -.39648682E-2
MEAN_MOTION_DOT = -.1485894E-1
MEAN_MOTION_DDOT = .64102358E-3

CCSDS_OMM_VERS = 2.0
CREATION_DATE  = 
ORIGINATOR     = 

OBJECT_NAME    = STARLINK-36725
OBJECT_ID      = 2026-055Z
CENTER_NAME    = EARTH
REF_FRAME      = TEME
TIME_SYSTEM    = UTC
MEAN_ELEMENT_THEORY = SGP/SGP4

EPOCH          = 2026-03-30T06:00:02.000160
MEAN_MOTION    = 15.94026928
ECCENTRICITY   = .00007518
INCLINATION    = 53.1566
RA_OF_ASC_NODE = 234.2579
ARG_OF_PERICENTER = 71.9545
MEAN_ANOMALY   = 274.7694

EPHEMERIS_TYPE = 0
CLASSIFICATION_TYPE = U
NORAD_CAT_ID   = 68285
ELEMENT_SET_NO = 999
REV_AT_EPOCH   = 294
BSTAR          = -.39376942E-2
MEAN_MOTION_DOT = -.1482985E-1
MEAN_MOTION_DDOT = .639316E-3

CCSDS_OMM_VERS = 2.0
CREATION_DATE  = 
ORIGINATOR     = 

OBJECT_NAME    = STARLINK-36998
OBJECT_ID      = 2026-055AA
CENTER_NAME    = EARTH
REF_FRAME      = TEME
TIME_SYSTEM    = UTC
MEAN_ELEMENT_THEORY = SGP/SGP4

EPOCH          = 2026-03-30T06:00:02.000160
MEAN_MOTION    = 15.94191042
ECCENTRICITY   = .00006345
INCLINATION    = 53.1574
RA_OF_ASC_NODE = 234.2425
ARG_OF_PERICENTER = 74.3948
MEAN_ANOMALY   = 280.5437

EPHEMERIS_TYPE = 0
CLASSIFICATION_TYPE = U
NORAD_CAT_ID   = 68286
ELEMENT_SET_NO = 999
REV_AT_EPOCH   = 294
BSTAR          = -.39163666E-2
MEAN_MOTION_DOT = -.1487804E-1
MEAN_MOTION_DDOT = .64417758E-3

CCSDS_OMM_VERS = 2.0
CREATION_DATE  = 
ORIGINATOR     = 

OBJECT_NAME    = STARLINK-37165
OBJECT_ID      = 2026-055AB
CENTER_NAME    = EARTH
REF_FRAME      = TEME
TIME_SYSTEM    = UTC
MEAN_ELEMENT_THEORY = SGP/SGP4

EPOCH          = 2026-03-30T06:00:02.000160
MEAN_MOTION    = 15.94287886
ECCENTRICITY   = .00005946
INCLINATION    = 53.1570
RA_OF_ASC_NODE = 234.2329
ARG_OF_PERICENTER = 72.6595
MEAN_ANOMALY   = 286.1313

EPHEMERIS_TYPE = 0
CLASSIFICATION_TYPE = U
NORAD_CAT_ID   = 68287
ELEMENT_SET_NO = 999
REV_AT_EPOCH   = 294
BSTAR          = -.39288609E-2
MEAN_MOTION_DOT = -.1500105E-1
MEAN_MOTION_DDOT = .65459222E-3

CCSDS_OMM_VERS = 2.0
CREATION_DATE  = 
ORIGINATOR     = 

OBJECT_NAME    = STARLINK-37016
OBJECT_ID      = 2026-055AC
CENTER_NAME    = EARTH
REF_FRAME      = TEME
TIME_SYSTEM    = UTC
MEAN_ELEMENT_THEORY = SGP/SGP4

EPOCH          = 2026-03-30T06:00:02.000160
MEAN_MOTION    = 15.94110588
ECCENTRICITY   = .00007091
INCLINATION    = 53.1567
RA_OF_ASC_NODE = 234.2502
ARG_OF_PERICENTER = 70.0463
MEAN_ANOMALY   = 280.5779

EPHEMERIS_TYPE = 0
CLASSIFICATION_TYPE = U
NORAD_CAT_ID   = 68288
ELEMENT_SET_NO = 999
REV_AT_EPOCH   = 294
BSTAR          = -.39216639E-2
MEAN_MOTION_DOT = -.1483517E-1
MEAN_MOTION_DDOT = .64027069E-3

CCSDS_OMM_VERS = 2.0
CREATION_DATE  = 
ORIGINATOR     = 

OBJECT_NAME    = STARLINK-37010
OBJECT_ID      = 2026-055AD
CENTER_NAME    = EARTH
REF_FRAME      = TEME
TIME_SYSTEM    = UTC
MEAN_ELEMENT_THEORY = SGP/SGP4

EPOCH          = 2026-03-30T06:00:02.000160
MEAN_MOTION    = 15.94380967
ECCENTRICITY   = .00005147
INCLINATION    = 53.1571
RA_OF_ASC_NODE = 234.2251
ARG_OF_PERICENTER = 73.7657
MEAN_ANOMALY   = 288.4903

EPHEMERIS_TYPE = 0
CLASSIFICATION_TYPE = U
NORAD_CAT_ID   = 68289
ELEMENT_SET_NO = 999
REV_AT_EPOCH   = 294
BSTAR          = -.38935893E-2
MEAN_MOTION_DOT = -.1494104E-1
MEAN_MOTION_DDOT = .65041439E-3

CCSDS_OMM_VERS = 2.0
CREATION_DATE  = 
ORIGINATOR     = 

OBJECT_NAME    = STARLINK-37151
OBJECT_ID      = 2026-055AE
CENTER_NAME    = EARTH
REF_FRAME      = TEME
TIME_SYSTEM    = UTC
MEAN_ELEMENT_THEORY = SGP/SGP4

EPOCH          = 2026-03-30T06:00:02.000160
MEAN_MOTION    = 15.94487276
ECCENTRICITY   = .00005218
INCLINATION    = 53.1567
RA_OF_ASC_NODE = 234.2191
ARG_OF_PERICENTER = 70.7695
MEAN_ANOMALY   = 294.5943

EPHEMERIS_TYPE = 0
CLASSIFICATION_TYPE = U
NORAD_CAT_ID   = 68290
ELEMENT_SET_NO = 999
REV_AT_EPOCH   = 294
BSTAR          = -.38600183E-2
MEAN_MOTION_DOT = -.1489709E-1
MEAN_MOTION_DDOT = .64760805E-3

CCSDS_OMM_VERS = 2.0
CREATION_DATE  = 
ORIGINATOR     = 

OBJECT_NAME    = STRIX-6
OBJECT_ID      = 2026-056A
CENTER_NAME    = EARTH
REF_FRAME      = TEME
TIME_SYSTEM    = UTC
MEAN_ELEMENT_THEORY = SGP/SGP4

EPOCH          = 2026-03-30T05:53:14.878176
MEAN_MOTION    = 14.99624525
ECCENTRICITY   = .00165981
INCLINATION    = 50.2844
RA_OF_ASC_NODE = 2.8112
ARG_OF_PERICENTER = 301.4880
MEAN_ANOMALY   = 58.4447

EPHEMERIS_TYPE = 0
CLASSIFICATION_TYPE = U
NORAD_CAT_ID   = 68291
ELEMENT_SET_NO = 999
REV_AT_EPOCH   = 142
BSTAR          = .55078329E-3
MEAN_MOTION_DOT = .6622E-4
MEAN_MOTION_DDOT = 0

CCSDS_OMM_VERS = 2.0
CREATION_DATE  = 
ORIGINATOR     = 

OBJECT_NAME    = ELECTRON R/B
OBJECT_ID      = 2026-056B
CENTER_NAME    = EARTH
REF_FRAME      = TEME
TIME_SYSTEM    = UTC
MEAN_ELEMENT_THEORY = SGP/SGP4

EPOCH          = 2026-03-30T03:05:50.764992
MEAN_MOTION    = 16.09220014
ECCENTRICITY   = .01401984
INCLINATION    = 50.2563
RA_OF_ASC_NODE = 357.3880
ARG_OF_PERICENTER = 286.7867
MEAN_ANOMALY   = 71.7787

EPHEMERIS_TYPE = 0
CLASSIFICATION_TYPE = U
NORAD_CAT_ID   = 68292
ELEMENT_SET_NO = 999
REV_AT_EPOCH   = 148
BSTAR          = .11361196E-2
MEAN_MOTION_DOT = .5326564E-1
MEAN_MOTION_DDOT = .11475039E-4

