STARLINK-37134          
1 68281U 26055V   26089.25002315 -.01471575  62871-3 -39616-2 0  9992
2 68281  53.1569 234.2809 0000553  78.3556 257.4203 15.93765438  2940
STARLINK-37160          
1 68282U 26055W   26089.25002315 -.01462509  62112-3 -39545-2 0  9999
2 68282  53.1570 234.2897 0000754  70.8272 261.0806 15.93681150  2943
STARLINK-37124          
1 68283U 26055X   26089.25002315 -.01477149  63363-3 -39581-2 0  9995
2 68283  53.1569 234.2744 0000631  65.1393 274.0835 15.93854338  2944
STARLINK-37159          
1 68284U 26055Y   26089.25002315 -.01485894  64102-3 -39649-2 0  9999
2 68284  53.1571 234.2656 0000648  75.2783 268.0477 15.93934927  2941
STARLINK-36725          
1 68285U 26055Z   26089.25002315 -.01482985  63932-3 -39377-2 0  9996
2 68285  53.1566 234.2579 0000751  71.9545 274.7694 15.94026928  2943
STARLINK-36998          
1 68286U 26055AA  26089.25002315 -.01487804  64418-3 -39164-2 0  9996
2 68286  53.1574 234.2425 0000634  74.3948 280.5437 15.94191042  2947
STARLINK-37165          
1 68287U 26055AB  26089.25002315 -.01500105  65459-3 -39289-2 0  9991
2 68287  53.1570 234.2329 0000594  72.6595 286.1313 15.94287886  2948
STARLINK-37016          
1 68288U 26055AC  26089.25002315 -.01483517  64027-3 -39217-2 0  9990
2 68288  53.1567 234.2502 0000709  70.0463 280.5779 15.94110588  2940
STARLINK-37010          
1 68289U 26055AD  26089.25002315 -.01494104  65041-3 -38936-2 0  9999
2 68289  53.1571 234.2251 0000514  73.7657 288.4903 15.94380967  2942
STARLINK-37151          
1 68290U 26055AE  26089.25002315 -.01489709  64761-3 -38600-2 0  9992
2 68290  53.1567 234.2191 0000521  70.7695 294.5943 15.94487276  2942
STRIX-6                 
1 68291U 26056A   26089.24531109  .00006622  00000+0  55078-3 0  9998
2 68291  50.2844   2.8112 0016598 301.4880  58.4447 14.99624525  1424
ELECTRON R/B            
1 68292U 26056B   26089.12905978  .05326564  11475-4  11361-2 0  9999
2 68292  50.2563 357.3880 0140198 286.7867  71.7787 16.09220014  1486
